start=new Date('2022-08-10T00:00:00.000Z').valueOf();
sats=[{"TIME_SYSTEM":"UTC","MEAN_MOTION_DOT":"-0.00003900","INCLINATION":"53.0547","REV_AT_EPOCH":"10077","RCS_SIZE":"LARGE","SITE":"AFETR","TLE_LINE2":"2 46679  53.0547 332.8870 0001769  61.2325 298.8842 15.06384723100776","ELEMENT_SET_NO":"999","LAUNCH_DATE":"2020-10-18","EPOCH":"2022-08-09T19:37:58.097856","NORAD_CAT_ID":"46679","TLE_LINE1":"1 46679U 20073K   22221.81803354 -.00003900  00000-0 -24312-3 0  9994","MEAN_ELEMENT_THEORY":"SGP4","MEAN_MOTION":"15.06384723","OBJECT_NAME":"STARLINK-1773","ARG_OF_PERICENTER":"61.2325","SEMIMAJOR_AXIS":"6925.395","PERIOD":"95.593","OBJECT_TYPE":"PAYLOAD","DECAY_DATE":null,"REF_FRAME":"TEME","APOAPSIS":"548.485","PERIAPSIS":"546.035","MEAN_ANOMALY":"298.8842","BSTAR":"-0.00024312000000","MEAN_MOTION_DDOT":"0.0000000000000","ECCENTRICITY":"0.00017690","CENTER_NAME":"EARTH","RA_OF_ASC_NODE":"332.8870","FILE":"3533016","OBJECT_ID":"2020-073K","COUNTRY_CODE":"US","EPHEMERIS_TYPE":"0","CLASSIFICATION_TYPE":"U","GP_ID":"209905201"},{"DECAY_DATE":null,"OBJECT_TYPE":"PAYLOAD","PERIOD":"95.592","MEAN_MOTION_DDOT":"0.0000000000000","BSTAR":"0.00026825000000","MEAN_ANOMALY":"273.2994","PERIAPSIS":"546.182","APOAPSIS":"548.215","REF_FRAME":"TEME","RA_OF_ASC_NODE":"8.7792","CENTER_NAME":"EARTH","ECCENTRICITY":"0.00014680","GP_ID":"209928155","CLASSIFICATION_TYPE":"U","OBJECT_ID":"2020-073L","COUNTRY_CODE":"US","EPHEMERIS_TYPE":"0","FILE":"3533123","MEAN_MOTION_DOT":"0.00003717","TIME_SYSTEM":"UTC","SITE":"AFETR","RCS_SIZE":"LARGE","INCLINATION":"53.0562","REV_AT_EPOCH":"9976","TLE_LINE1":"1 46680U 20073L   22221.62130045  .00003717  00000-0  26825-3 0  9990","NORAD_CAT_ID":"46680","EPOCH":"2022-08-09T14:54:40.358880","ELEMENT_SET_NO":"999","LAUNCH_DATE":"2020-10-18","TLE_LINE2":"2 46680  53.0562   8.7792 0001468  86.8163 273.2994 15.06404877 99760","SEMIMAJOR_AXIS":"6925.334","ARG_OF_PERICENTER":"86.8163","OBJECT_NAME":"STARLINK-1774","MEAN_MOTION":"15.06404877","MEAN_ELEMENT_THEORY":"SGP4"},{"SITE":"AFETR","RCS_SIZE":"LARGE","INCLINATION":"53.0551","REV_AT_EPOCH":"10022","MEAN_MOTION_DOT":"0.00000256","TIME_SYSTEM":"UTC","SEMIMAJOR_AXIS":"6925.356","ARG_OF_PERICENTER":"75.7331","OBJECT_NAME":"STARLINK-1775","MEAN_MOTION":"15.06397508","MEAN_ELEMENT_THEORY":"SGP4","NORAD_CAT_ID":"46681","TLE_LINE1":"1 46681U 20073M   22221.52545612  .00000256  00000-0  36063-4 0  9991","EPOCH":"2022-08-09T12:36:39.408768","ELEMENT_SET_NO":"999","LAUNCH_DATE":"2020-10-18","TLE_LINE2":"2 46681  53.0551   9.1955 0001391  75.7331 284.3812 15.06397508100222","MEAN_MOTION_DDOT":"0.0000000000000","BSTAR":"0.00003606300000","MEAN_ANOMALY":"284.3812","PERIAPSIS":"546.258","APOAPSIS":"548.185","REF_FRAME":"TEME","DECAY_DATE":null,"OBJECT_TYPE":"PAYLOAD","PERIOD":"95.592","CLASSIFICATION_TYPE":"U","GP_ID":"209905190","EPHEMERIS_TYPE":"0","COUNTRY_CODE":"US","OBJECT_ID":"2020-073M","FILE":"3533016","RA_OF_ASC_NODE":"9.1955","CENTER_NAME":"EARTH","ECCENTRICITY":"0.00013910"},{"REV_AT_EPOCH":"9978","INCLINATION":"53.0568","RCS_SIZE":"LARGE","SITE":"AFETR","TIME_SYSTEM":"UTC","MEAN_MOTION_DOT":"-0.00001400","MEAN_MOTION":"15.06398808","MEAN_ELEMENT_THEORY":"SGP4","OBJECT_NAME":"STARLINK-1776","ARG_OF_PERICENTER":"79.1305","SEMIMAJOR_AXIS":"6925.352","TLE_LINE2":"2 46682  53.0568   8.1926 0001555  79.1305 280.9859 15.06398808 99784","LAUNCH_DATE":"2020-10-18","ELEMENT_SET_NO":"999","EPOCH":"2022-08-09T18:00:25.751520","NORAD_CAT_ID":"46682","TLE_LINE1":"1 46682U 20073N   22221.75029805 -.00001400  00000-0 -75100-4 0  9997","REF_FRAME":"TEME","APOAPSIS":"548.294","PERIAPSIS":"546.140","MEAN_ANOMALY":"280.9859","BSTAR":"-0.00007510000000","MEAN_MOTION_DDOT":"0.0000000000000","PERIOD":"95.592","OBJECT_TYPE":"PAYLOAD","DECAY_DATE":null,"FILE":"3533123","COUNTRY_CODE":"US","OBJECT_ID":"2020-073N","EPHEMERIS_TYPE":"0","CLASSIFICATION_TYPE":"U","GP_ID":"209928411","ECCENTRICITY":"0.00015550","CENTER_NAME":"EARTH","RA_OF_ASC_NODE":"8.1926"},{"CLASSIFICATION_TYPE":"U","GP_ID":"209898943","COUNTRY_CODE":"US","EPHEMERIS_TYPE":"0","OBJECT_ID":"2020-073Q","FILE":"3532882","RA_OF_ASC_NODE":"354.7373","CENTER_NAME":"EARTH","ECCENTRICITY":"0.00017120","MEAN_MOTION_DDOT":"0.0000000000000","BSTAR":"0.00014889000000","MEAN_ANOMALY":"252.7086","PERIAPSIS":"546.005","APOAPSIS":"548.376","REF_FRAME":"TEME","DECAY_DATE":null,"OBJECT_TYPE":"PAYLOAD","PERIOD":"95.592","SEMIMAJOR_AXIS":"6925.326","ARG_OF_PERICENTER":"107.4090","OBJECT_NAME":"STARLINK-1780","MEAN_MOTION":"15.06407473","MEAN_ELEMENT_THEORY":"SGP4","NORAD_CAT_ID":"46684","TLE_LINE1":"1 46684U 20073Q   22221.40704322  .00001937  00000-0  14889-3 0  9994","EPOCH":"2022-08-09T09:46:08.534208","ELEMENT_SET_NO":"999","LAUNCH_DATE":"2020-10-18","TLE_LINE2":"2 46684  53.0561 354.7373 0001712 107.4090 252.7086 15.06407473 99942","SITE":"AFETR","RCS_SIZE":"LARGE","REV_AT_EPOCH":"9994","INCLINATION":"53.0561","MEAN_MOTION_DOT":"0.00001937","TIME_SYSTEM":"UTC"},{"SEMIMAJOR_AXIS":"6925.376","MEAN_MOTION":"15.06391115","MEAN_ELEMENT_THEORY":"SGP4","OBJECT_NAME":"STARLINK-1781","ARG_OF_PERICENTER":"92.5742","EPOCH":"2022-08-09T19:02:45.780288","TLE_LINE1":"1 46685U 20073R   22221.79358542 -.00003204  00000-0 -19635-3 0  9991","NORAD_CAT_ID":"46685","TLE_LINE2":"2 46685  53.0545   7.9787 0001550  92.5742 267.5424 15.06391115 99786","ELEMENT_SET_NO":"999","LAUNCH_DATE":"2020-10-18","RCS_SIZE":"LARGE","SITE":"AFETR","REV_AT_EPOCH":"9978","INCLINATION":"53.0545","TIME_SYSTEM":"UTC","MEAN_MOTION_DOT":"-0.00003204","COUNTRY_CODE":"US","EPHEMERIS_TYPE":"0","OBJECT_ID":"2020-073R","GP_ID":"209927655","CLASSIFICATION_TYPE":"U","FILE":"3533123","RA_OF_ASC_NODE":"7.9787","ECCENTRICITY":"0.00015500","CENTER_NAME":"EARTH","MEAN_ANOMALY":"267.5424","BSTAR":"-0.00019635000000","MEAN_MOTION_DDOT":"0.0000000000000","REF_FRAME":"TEME","APOAPSIS":"548.314","PERIAPSIS":"546.167","OBJECT_TYPE":"PAYLOAD","DECAY_DATE":null,"PERIOD":"95.593"},{"REV_AT_EPOCH":"9974","INCLINATION":"53.0559","RCS_SIZE":"LARGE","SITE":"AFETR","TIME_SYSTEM":"UTC","MEAN_MOTION_DOT":"0.00000199","OBJECT_NAME":"STARLINK-1783","MEAN_ELEMENT_THEORY":"SGP4","MEAN_MOTION":"15.06397622","ARG_OF_PERICENTER":"83.5358","SEMIMAJOR_AXIS":"6925.356","LAUNCH_DATE":"2020-10-18","ELEMENT_SET_NO":"999","TLE_LINE2":"2 46686  53.0559   9.2415 0001443  83.5358 276.5795 15.06397622 99745","TLE_LINE1":"1 46686U 20073S   22221.50607486  .00000199  00000-0  32230-4 0  9990","NORAD_CAT_ID":"46686","EPOCH":"2022-08-09T12:08:44.867904","APOAPSIS":"548.220","REF_FRAME":"TEME","PERIAPSIS":"546.222","BSTAR":"0.00003223000000","MEAN_ANOMALY":"276.5795","MEAN_MOTION_DDOT":"0.0000000000000","PERIOD":"95.592","OBJECT_TYPE":"PAYLOAD","DECAY_DATE":null,"FILE":"3532882","COUNTRY_CODE":"US","OBJECT_ID":"2020-073S","EPHEMERIS_TYPE":"0","GP_ID":"209897443","CLASSIFICATION_TYPE":"U","CENTER_NAME":"EARTH","ECCENTRICITY":"0.00014430","RA_OF_ASC_NODE":"9.2415"},{"MEAN_MOTION":"15.06401860","MEAN_ELEMENT_THEORY":"SGP4","OBJECT_NAME":"STARLINK-1784","ARG_OF_PERICENTER":"70.8627","SEMIMAJOR_AXIS":"6925.343","TLE_LINE2":"2 46687  53.0542 334.6299 0001338  70.8627 289.2506 15.06401860100221","ELEMENT_SET_NO":"999","LAUNCH_DATE":"2020-10-18","EPOCH":"2022-08-09T10:20:38.186592","TLE_LINE1":"1 46687U 20073T   22221.43099753 -.00000855  00000-0 -38477-4 0  9995","NORAD_CAT_ID":"46687","REV_AT_EPOCH":"10022","INCLINATION":"53.0542","RCS_SIZE":"LARGE","SITE":"AFETR","TIME_SYSTEM":"UTC","MEAN_MOTION_DOT":"-0.00000855","FILE":"3532882","COUNTRY_CODE":"US","EPHEMERIS_TYPE":"0","OBJECT_ID":"2020-073T","GP_ID":"209897693","CLASSIFICATION_TYPE":"U","ECCENTRICITY":"0.00013380","CENTER_NAME":"EARTH","RA_OF_ASC_NODE":"334.6299","REF_FRAME":"TEME","APOAPSIS":"548.134","PERIAPSIS":"546.281","MEAN_ANOMALY":"289.2506","BSTAR":"-0.00003847700000","MEAN_MOTION_DDOT":"0.0000000000000","PERIOD":"95.592","OBJECT_TYPE":"PAYLOAD","DECAY_DATE":null},{"PERIOD":"95.592","DECAY_DATE":null,"OBJECT_TYPE":"PAYLOAD","PERIAPSIS":"546.470","APOAPSIS":"547.964","REF_FRAME":"TEME","MEAN_MOTION_DDOT":"0.0000000000000","BSTAR":"-0.00003587400000","MEAN_ANOMALY":"256.9615","CENTER_NAME":"EARTH","ECCENTRICITY":"0.00010780","RA_OF_ASC_NODE":"8.0199","FILE":"3533123","GP_ID":"209928663","CLASSIFICATION_TYPE":"U","COUNTRY_CODE":"US","OBJECT_ID":"2020-073V","EPHEMERIS_TYPE":"0","MEAN_MOTION_DOT":"-0.00000816","TIME_SYSTEM":"UTC","INCLINATION":"53.0569","REV_AT_EPOCH":"10103","SITE":"AFETR","RCS_SIZE":"LARGE","ELEMENT_SET_NO":"999","LAUNCH_DATE":"2020-10-18","TLE_LINE2":"2 46689  53.0569   8.0199 0001078 103.1495 256.9615 15.06398889101035","TLE_LINE1":"1 46689U 20073V   22221.78716975 -.00000816  00000-0 -35874-4 0  9992","NORAD_CAT_ID":"46689","EPOCH":"2022-08-09T18:53:31.466400","ARG_OF_PERICENTER":"103.1495","OBJECT_NAME":"STARLINK-1788","MEAN_MOTION":"15.06398889","MEAN_ELEMENT_THEORY":"SGP4","SEMIMAJOR_AXIS":"6925.352"},{"EPOCH":"2022-08-09T17:18:37.661472","TLE_LINE1":"1 46690U 20073W   22221.72126923 -.00004585  00000-0 -28922-3 0  9998","NORAD_CAT_ID":"46690","TLE_LINE2":"2 46690  53.0557 343.3214 0001149 113.7962 246.3147 15.06387761100121","ELEMENT_SET_NO":"999","LAUNCH_DATE":"2020-10-18","SEMIMAJOR_AXIS":"6925.386","MEAN_MOTION":"15.06387761","MEAN_ELEMENT_THEORY":"SGP4","OBJECT_NAME":"STARLINK-1789","ARG_OF_PERICENTER":"113.7962","TIME_SYSTEM":"UTC","MEAN_MOTION_DOT":"-0.00004585","RCS_SIZE":"LARGE","SITE":"AFETR","REV_AT_EPOCH":"10012","INCLINATION":"53.0557","RA_OF_ASC_NODE":"343.3214","ECCENTRICITY":"0.00011490","CENTER_NAME":"EARTH","EPHEMERIS_TYPE":"0","COUNTRY_CODE":"US","OBJECT_ID":"2020-073W","GP_ID":"209928908","CLASSIFICATION_TYPE":"U","FILE":"3533123","OBJECT_TYPE":"PAYLOAD","DECAY_DATE":null,"PERIOD":"95.593","MEAN_ANOMALY":"246.3147","BSTAR":"-0.00028922000000","MEAN_MOTION_DDOT":"0.0000000000000","REF_FRAME":"TEME","APOAPSIS":"548.047","PERIAPSIS":"546.455"}];
